{
"type": "FeatureCollection",
"name": "osm_shelters_fixture",
"crs": { "type": "name", "properties": { "name": "urn:ogc:def:crs:OGC:1.3:CRS84" } },
"features": [
{ "type": "Feature", "properties": { "osm_id": "mock_shl_01", "name": "Patna Junction Elevated Concourse", "amenity": "shelter", "latitude": 25.602, "longitude": 85.138, "source": "Patna Reference Infrastructure Dataset", "is_synthetic": true }, "geometry": { "type": "Point", "coordinates": [ 85.138, 25.602 ] } },
{ "type": "Feature", "properties": { "osm_id": "mock_shl_02", "name": "Moin-ul-Haq Stadium Complex", "amenity": "shelter", "latitude": 25.605, "longitude": 85.168, "source": "Patna Reference Infrastructure Dataset", "is_synthetic": true }, "geometry": { "type": "Point", "coordinates": [ 85.168, 25.605 ] } },
{ "type": "Feature", "properties": { "osm_id": "mock_shl_03", "name": "Pataliputra Sports Complex Kankarbagh", "amenity": "shelter", "latitude": 25.596, "longitude": 85.155, "source": "Patna Reference Infrastructure Dataset", "is_synthetic": true }, "geometry": { "type": "Point", "coordinates": [ 85.155, 25.596 ] } },
{ "type": "Feature", "properties": { "osm_id": "mock_shl_04", "name": "Gandhi Maidan Elevated Pavilion", "amenity": "community_centre", "latitude": 25.618, "longitude": 85.143, "source": "Patna Reference Infrastructure Dataset", "is_synthetic": true }, "geometry": { "type": "Point", "coordinates": [ 85.143, 25.618 ] } },
{ "type": "Feature", "properties": { "osm_id": "mock_shl_05", "name": "Patliputra Junction Elevated Station", "amenity": "shelter", "latitude": 25.625, "longitude": 85.084, "source": "Patna Reference Infrastructure Dataset", "is_synthetic": true }, "geometry": { "type": "Point", "coordinates": [ 85.084, 25.625 ] } },
{ "type": "Feature", "properties": { "osm_id": "mock_shl_06", "name": "Rajendra Nagar Terminal Concourse", "amenity": "shelter", "latitude": 25.599, "longitude": 85.164, "source": "Patna Reference Infrastructure Dataset", "is_synthetic": true }, "geometry": { "type": "Point", "coordinates": [ 85.164, 25.599 ] } }
]
}
