{
"type": "FeatureCollection",
"name": "osm_schools_fixture",
"crs": { "type": "name", "properties": { "name": "urn:ogc:def:crs:OGC:1.3:CRS84" } },
"features": [
{ "type": "Feature", "properties": { "osm_id": "mock_sch_01", "name": "Patna College / Patna University", "amenity": "university", "latitude": 25.62, "longitude": 85.169, "source": "Patna Reference Infrastructure Dataset", "is_synthetic": true }, "geometry": { "type": "Point", "coordinates": [ 85.169, 25.62 ] } },
{ "type": "Feature", "properties": { "osm_id": "mock_sch_02", "name": "St. Xavier's High School Gandhi Maidan", "amenity": "school", "latitude": 25.616, "longitude": 85.141, "source": "Patna Reference Infrastructure Dataset", "is_synthetic": true }, "geometry": { "type": "Point", "coordinates": [ 85.141, 25.616 ] } },
{ "type": "Feature", "properties": { "osm_id": "mock_sch_03", "name": "Loyola High School Kurji", "amenity": "school", "latitude": 25.636, "longitude": 85.109, "source": "Patna Reference Infrastructure Dataset", "is_synthetic": true }, "geometry": { "type": "Point", "coordinates": [ 85.109, 25.636 ] } },
{ "type": "Feature", "properties": { "osm_id": "mock_sch_04", "name": "A.N. College Boring Road", "amenity": "college", "latitude": 25.623, "longitude": 85.12, "source": "Patna Reference Infrastructure Dataset", "is_synthetic": true }, "geometry": { "type": "Point", "coordinates": [ 85.12, 25.623 ] } },
{ "type": "Feature", "properties": { "osm_id": "mock_sch_05", "name": "College of Commerce, Arts and Science", "amenity": "college", "latitude": 25.598, "longitude": 85.161, "source": "Patna Reference Infrastructure Dataset", "is_synthetic": true }, "geometry": { "type": "Point", "coordinates": [ 85.161, 25.598 ] } },
{ "type": "Feature", "properties": { "osm_id": "mock_sch_06", "name": "Delhi Public School (DPS) Patna", "amenity": "school", "latitude": 25.609, "longitude": 85.052, "source": "Patna Reference Infrastructure Dataset", "is_synthetic": true }, "geometry": { "type": "Point", "coordinates": [ 85.052, 25.609 ] } }
]
}
