{
"type": "FeatureCollection",
"name": "osm_hospitals_fixture",
"crs": { "type": "name", "properties": { "name": "urn:ogc:def:crs:OGC:1.3:CRS84" } },
"features": [
{ "type": "Feature", "properties": { "osm_id": "mock_hosp_01", "name": "Patna Medical College & Hospital (PMCH)", "amenity": "hospital", "latitude": 25.621, "longitude": 85.158, "source": "Patna Reference Infrastructure Dataset", "is_synthetic": true }, "geometry": { "type": "Point", "coordinates": [ 85.158, 25.621 ] } },
{ "type": "Feature", "properties": { "osm_id": "mock_hosp_02", "name": "Nalanda Medical College & Hospital (NMCH)", "amenity": "hospital", "latitude": 25.599, "longitude": 85.195, "source": "Patna Reference Infrastructure Dataset", "is_synthetic": true }, "geometry": { "type": "Point", "coordinates": [ 85.195, 25.599 ] } },
{ "type": "Feature", "properties": { "osm_id": "mock_hosp_03", "name": "All India Institute of Medical Sciences (AIIMS) Patna", "amenity": "hospital", "latitude": 25.563, "longitude": 85.044, "source": "Patna Reference Infrastructure Dataset", "is_synthetic": true }, "geometry": { "type": "Point", "coordinates": [ 85.044, 25.563 ] } },
{ "type": "Feature", "properties": { "osm_id": "mock_hosp_04", "name": "Indira Gandhi Institute of Medical Sciences (IGIMS)", "amenity": "hospital", "latitude": 25.615, "longitude": 85.087, "source": "Patna Reference Infrastructure Dataset", "is_synthetic": true }, "geometry": { "type": "Point", "coordinates": [ 85.087, 25.615 ] } },
{ "type": "Feature", "properties": { "osm_id": "mock_hosp_05", "name": "Paras HMRI Hospital", "amenity": "hospital", "latitude": 25.613, "longitude": 85.093, "source": "Patna Reference Infrastructure Dataset", "is_synthetic": true }, "geometry": { "type": "Point", "coordinates": [ 85.093, 25.613 ] } },
{ "type": "Feature", "properties": { "osm_id": "mock_hosp_06", "name": "Kurji Holy Family Hospital", "amenity": "hospital", "latitude": 25.637, "longitude": 85.112, "source": "Patna Reference Infrastructure Dataset", "is_synthetic": true }, "geometry": { "type": "Point", "coordinates": [ 85.112, 25.637 ] } }
]
}
