{
"type": "FeatureCollection",
"name": "osm_roads_fixture",
"crs": { "type": "name", "properties": { "name": "urn:ogc:def:crs:OGC:1.3:CRS84" } },
"features": [
{ "type": "Feature", "properties": { "osm_id": "mock_road_01", "name": "Bailey Road (Jawaharlal Nehru Marg)", "highway": "trunk", "source": "Patna Reference Infrastructure Dataset", "is_synthetic": true, "length_m": 8035.94 }, "geometry": { "type": "LineString", "coordinates": [ [ 85.06, 25.612 ], [ 85.084, 25.612 ], [ 85.12, 25.612 ], [ 85.14, 25.612 ] ] } },
{ "type": "Feature", "properties": { "osm_id": "mock_road_01b", "name": "Patliputra Station Road", "highway": "secondary", "source": "Patna Reference Infrastructure Dataset", "is_synthetic": true, "length_m": 1440.25 }, "geometry": { "type": "LineString", "coordinates": [ [ 85.084, 25.612 ], [ 85.084, 25.625 ] ] } },
{ "type": "Feature", "properties": { "osm_id": "mock_road_02", "name": "Frazer Road / Exhibition Road", "highway": "primary", "source": "Patna Reference Infrastructure Dataset", "is_synthetic": true, "length_m": 1855.75 }, "geometry": { "type": "LineString", "coordinates": [ [ 85.138, 25.602 ], [ 85.14, 25.612 ], [ 85.143, 25.618 ] ] } },
{ "type": "Feature", "properties": { "osm_id": "mock_road_02b", "name": "Gandhi Maidan North Connector", "highway": "secondary", "source": "Patna Reference Infrastructure Dataset", "is_synthetic": true, "length_m": 775.5 }, "geometry": { "type": "LineString", "coordinates": [ [ 85.143, 25.618 ], [ 85.143, 25.625 ] ] } },
{ "type": "Feature", "properties": { "osm_id": "mock_road_03", "name": "Ashok Rajpath", "highway": "primary", "source": "Patna Reference Infrastructure Dataset", "is_synthetic": true, "length_m": 13697.03 }, "geometry": { "type": "LineString", "coordinates": [ [ 85.09, 25.635 ], [ 85.13, 25.635 ], [ 85.143, 25.625 ], [ 85.168, 25.615 ], [ 85.22, 25.615 ] ] } },
{ "type": "Feature", "properties": { "osm_id": "mock_road_04", "name": "Boring Canal Road", "highway": "primary", "source": "Patna Reference Infrastructure Dataset", "is_synthetic": true, "length_m": 2775.12 }, "geometry": { "type": "LineString", "coordinates": [ [ 85.12, 25.612 ], [ 85.122, 25.622 ], [ 85.13, 25.635 ] ] } },
{ "type": "Feature", "properties": { "osm_id": "mock_road_05", "name": "Kankarbagh Main Road", "highway": "primary", "source": "Patna Reference Infrastructure Dataset", "is_synthetic": true, "length_m": 5470.57 }, "geometry": { "type": "LineString", "coordinates": [ [ 85.138, 25.602 ], [ 85.14, 25.595 ], [ 85.155, 25.595 ], [ 85.164, 25.599 ], [ 85.185, 25.595 ] ] } },
{ "type": "Feature", "properties": { "osm_id": "mock_road_05b", "name": "Moin-ul-Haq Stadium Connector", "highway": "secondary", "source": "Patna Reference Infrastructure Dataset", "is_synthetic": true, "length_m": 1884.56 }, "geometry": { "type": "LineString", "coordinates": [ [ 85.164, 25.599 ], [ 85.168, 25.605 ], [ 85.168, 25.615 ] ] } },
{ "type": "Feature", "properties": { "osm_id": "mock_road_06", "name": "Patna Bypass Road (NH 30)", "highway": "trunk", "source": "Patna Reference Infrastructure Dataset", "is_synthetic": true, "length_m": 14067.49 }, "geometry": { "type": "LineString", "coordinates": [ [ 85.08, 25.57 ], [ 85.14, 25.57 ], [ 85.155, 25.57 ], [ 85.22, 25.57 ] ] } },
{ "type": "Feature", "properties": { "osm_id": "mock_road_06b", "name": "Old Bypass Connector", "highway": "secondary", "source": "Patna Reference Infrastructure Dataset", "is_synthetic": true, "length_m": 2769.61 }, "geometry": { "type": "LineString", "coordinates": [ [ 85.155, 25.595 ], [ 85.155, 25.57 ] ] } }
]
}
